{
  "type": "FeatureCollection",
  "features": [
    {
      "type": "Feature",
      "properties": {
        "norad_id": 66575,
        "name": "STARLINK-35810",
        "group": "last-30-days",
        "lat": 13.647734983639825,
        "lon": -151.26772855326422,
        "alt_km": 443.7705012972556,
        "timestamp": "2025-12-25T22:42:15.706722+00:00",
        "meta_object_name": "STARLINK-35810",
        "meta_object_id": "2025-268U",
        "meta_epoch": "2025-12-25T18:00:02.000160",
        "meta_mean_motion": 15.41190877,
        "meta_eccentricity": 0.0001236,
        "meta_inclination": 43.0008,
        "meta_ra_of_asc_node": 44.9651,
        "meta_arg_of_pericenter": 293.9034,
        "meta_mean_anomaly": 217.3883,
        "meta_ephemeris_type": 0,
        "meta_classification_type": "U",
        "meta_norad_cat_id": 66575,
        "meta_element_set_no": 999,
        "meta_rev_at_epoch": 610,
        "meta_bstar": -0.055014,
        "meta_mean_motion_dot": -0.02071314,
        "meta_mean_motion_ddot": 0,
        "tle_line1": "1 66575U 25268U   25359.75002315 -.02071314  00000+0 -55014-1 0  9994",
        "tle_line2": "2 66575  43.0008  44.9651 0001236 293.9034 217.3883 15.41190877  6109"
      },
      "geometry": {
        "type": "Point",
        "coordinates": [
          -151.26772855326422,
          13.647734983639825
        ]
      }
    },
    {
      "type": "Feature",
      "properties": {
        "norad_id": 66576,
        "name": "STARLINK-35814",
        "group": "last-30-days",
        "lat": 5.309954744974559,
        "lon": -141.91976645237014,
        "alt_km": 442.33505737993164,
        "timestamp": "2025-12-25T22:42:15.706732+00:00",
        "meta_object_name": "STARLINK-35814",
        "meta_object_id": "2025-268V",
        "meta_epoch": "2025-12-25T18:00:02.000160",
        "meta_mean_motion": 15.42027159,
        "meta_eccentricity": 0.000111,
        "meta_inclination": 43.0008,
        "meta_ra_of_asc_node": 44.9354,
        "meta_arg_of_pericenter": 295.0966,
        "meta_mean_anomaly": 228.0452,
        "meta_ephemeris_type": 0,
        "meta_classification_type": "U",
        "meta_norad_cat_id": 66576,
        "meta_element_set_no": 999,
        "meta_rev_at_epoch": 610,
        "meta_bstar": -0.053427,
        "meta_mean_motion_dot": -0.02069289,
        "meta_mean_motion_ddot": 0,
        "tle_line1": "1 66576U 25268V   25359.75002315 -.02069289  00000+0 -53427-1 0  9999",
        "tle_line2": "2 66576  43.0008  44.9354 0001110 295.0966 228.0452 15.42027159  6102"
      },
      "geometry": {
        "type": "Point",
        "coordinates": [
          -141.91976645237014,
          5.309954744974559
        ]
      }
    },
    {
      "type": "Feature",
      "properties": {
        "norad_id": 66577,
        "name": "STARLINK-35815",
        "group": "last-30-days",
        "lat": -7.491434540647622,
        "lon": -128.12894027822705,
        "alt_km": 439.3792870662501,
        "timestamp": "2025-12-25T22:42:15.706743+00:00",
        "meta_object_name": "STARLINK-35815",
        "meta_object_id": "2025-268W",
        "meta_epoch": "2025-12-25T18:00:02.000160",
        "meta_mean_motion": 15.43482061,
        "meta_eccentricity": 0.000109,
        "meta_inclination": 43.001,
        "meta_ra_of_asc_node": 44.8925,
        "meta_arg_of_pericenter": 291.1342,
        "meta_mean_anomaly": 249.8071,
        "meta_ephemeris_type": 0,
        "meta_classification_type": "U",
        "meta_norad_cat_id": 66577,
        "meta_element_set_no": 999,
        "meta_rev_at_epoch": 610,
        "meta_bstar": -0.051072,
        "meta_mean_motion_dot": -0.02077346,
        "meta_mean_motion_ddot": 0,
        "tle_line1": "1 66577U 25268W   25359.75002315 -.02077346  00000+0 -51072-1 0  9997",
        "tle_line2": "2 66577  43.0010  44.8925 0001090 291.1342 249.8071 15.43482061  6107"
      },
      "geometry": {
        "type": "Point",
        "coordinates": [
          -128.12894027822705,
          -7.491434540647622
        ]
      }
    },
    {
      "type": "Feature",
      "properties": {
        "norad_id": 66578,
        "name": "STARLINK-35743",
        "group": "last-30-days",
        "lat": -14.750540022227272,
        "lon": -119.85667689507574,
        "alt_km": 437.35996165391407,
        "timestamp": "2025-12-25T22:42:15.706753+00:00",
        "meta_object_name": "STARLINK-35743",
        "meta_object_id": "2025-268X",
        "meta_epoch": "2025-12-25T18:00:02.000160",
        "meta_mean_motion": 15.44307688,
        "meta_eccentricity": 0.0001025,
        "meta_inclination": 43.0007,
        "meta_ra_of_asc_node": 44.8668,
        "meta_arg_of_pericenter": 280.8784,
        "meta_mean_anomaly": 270.3805,
        "meta_ephemeris_type": 0,
        "meta_classification_type": "U",
        "meta_norad_cat_id": 66578,
        "meta_element_set_no": 999,
        "meta_rev_at_epoch": 610,
        "meta_bstar": -0.048763,
        "meta_mean_motion_dot": -0.02044434,
        "meta_mean_motion_ddot": 0,
        "tle_line1": "1 66578U 25268X   25359.75002315 -.02044434  00000+0 -48763-1 0  9993",
        "tle_line2": "2 66578  43.0007  44.8668 0001025 280.8784 270.3805 15.44307688  6107"
      },
      "geometry": {
        "type": "Point",
        "coordinates": [
          -119.85667689507574,
          -14.750540022227272
        ]
      }
    },
    {
      "type": "Feature",
      "properties": {
        "norad_id": 66579,
        "name": "STARLINK-35868",
        "group": "last-30-days",
        "lat": -21.34865015253909,
        "lon": -111.49489938058171,
        "alt_km": 435.3816994450053,
        "timestamp": "2025-12-25T22:42:15.706764+00:00",
        "meta_object_name": "STARLINK-35868",
        "meta_object_id": "2025-268Y",
        "meta_epoch": "2025-12-25T18:00:02.000160",
        "meta_mean_motion": 15.451423,
        "meta_eccentricity": 9.86e-05,
        "meta_inclination": 43.0008,
        "meta_ra_of_asc_node": 44.8427,
        "meta_arg_of_pericenter": 281.7233,
        "meta_mean_anomaly": 279.2944,
        "meta_ephemeris_type": 0,
        "meta_classification_type": "U",
        "meta_norad_cat_id": 66579,
        "meta_element_set_no": 999,
        "meta_rev_at_epoch": 610,
        "meta_bstar": -0.047179,
        "meta_mean_motion_dot": -0.02036669,
        "meta_mean_motion_ddot": 0,
        "tle_line1": "1 66579U 25268Y   25359.75002315 -.02036669  00000+0 -47179-1 0  9995",
        "tle_line2": "2 66579  43.0008  44.8427 0000986 281.7233 279.2944 15.45142300  6107"
      },
      "geometry": {
        "type": "Point",
        "coordinates": [
          -111.49489938058171,
          -21.34865015253909
        ]
      }
    },
    {
      "type": "Feature",
      "properties": {
        "norad_id": 66580,
        "name": "STARLINK-35872",
        "group": "last-30-days",
        "lat": -27.1740668832626,
        "lon": -102.8903459123593,
        "alt_km": 433.4008150328136,
        "timestamp": "2025-12-25T22:42:15.706774+00:00",
        "meta_object_name": "STARLINK-35872",
        "meta_object_id": "2025-268Z",
        "meta_epoch": "2025-12-25T18:00:02.000160",
        "meta_mean_motion": 15.46000769,
        "meta_eccentricity": 8.17e-05,
        "meta_inclination": 43.0004,
        "meta_ra_of_asc_node": 44.8193,
        "meta_arg_of_pericenter": 291.3983,
        "meta_mean_anomaly": 278.8097,
        "meta_ephemeris_type": 0,
        "meta_classification_type": "U",
        "meta_norad_cat_id": 66580,
        "meta_element_set_no": 999,
        "meta_rev_at_epoch": 593,
        "meta_bstar": -0.046867,
        "meta_mean_motion_dot": -0.02078851,
        "meta_mean_motion_ddot": 0,
        "tle_line1": "1 66580U 25268Z   25359.75002315 -.02078851  00000+0 -46867-1 0  9999",
        "tle_line2": "2 66580  43.0004  44.8193 0000817 291.3983 278.8097 15.46000769  5934"
      },
      "geometry": {
        "type": "Point",
        "coordinates": [
          -102.8903459123593,
          -27.1740668832626
        ]
      }
    },
    {
      "type": "Feature",
      "properties": {
        "norad_id": 66581,
        "name": "STARLINK-35744",
        "group": "last-30-days",
        "lat": -32.12840767935605,
        "lon": -93.9713035575744,
        "alt_km": 430.92934305274684,
        "timestamp": "2025-12-25T22:42:15.706784+00:00",
        "meta_object_name": "STARLINK-35744",
        "meta_object_id": "2025-268AA",
        "meta_epoch": "2025-12-25T18:00:02.000160",
        "meta_mean_motion": 15.46821676,
        "meta_eccentricity": 0.0001069,
        "meta_inclination": 43.0001,
        "meta_ra_of_asc_node": 44.7982,
        "meta_arg_of_pericenter": 276.3401,
        "meta_mean_anomaly": 302.5059,
        "meta_ephemeris_type": 0,
        "meta_classification_type": "U",
        "meta_norad_cat_id": 66581,
        "meta_element_set_no": 999,
        "meta_rev_at_epoch": 588,
        "meta_bstar": -0.045425,
        "meta_mean_motion_dot": -0.02074173,
        "meta_mean_motion_ddot": 0,
        "tle_line1": "1 66581U 25268AA  25359.75002315 -.02074173  00000+0 -45425-1 0  9992",
        "tle_line2": "2 66581  43.0001  44.7982 0001069 276.3401 302.5059 15.46821676  5880"
      },
      "geometry": {
        "type": "Point",
        "coordinates": [
          -93.9713035575744,
          -32.12840767935605
        ]
      }
    }
  ]
}